{"type": "FeatureCollection", "features": [ {"type": "Feature", "properties": {"norad_id": 38054, "name": "COSMOS 2251 DEB", "group": "cosmos-2251-debris", "lat": 11.947337089690782, "lon": 66.46906010907477, "alt_km": 883.4874585263951, "timestamp": "2025-12-22T09:53:37.798017+00:00", "meta": {"OBJECT_NAME": "COSMOS 2251 DEB", "OBJECT_ID": "1993-036BRL", "EPOCH": "2025-12-21T17:20:05.403264", "MEAN_MOTION": 13.62379948, "ECCENTRICITY": 0.0357485, "INCLINATION": 73.9527, "RA_OF_ASC_NODE": 251.089, "ARG_OF_PERICENTER": 227.3962, "MEAN_ANOMALY": 160.8212, "EPHEMERIS_TYPE": 0, "CLASSIFICATION_TYPE": "U", "NORAD_CAT_ID": 38054, "ELEMENT_SET_NO": 999, "REV_AT_EPOCH": 67302, "BSTAR": 0.0014428, "MEAN_MOTION_DOT": 1.694e-05, "MEAN_MOTION_DDOT": 0}, "tle": {"line1": "1 38054U 93036BRL 25355.72228476  .00001694  00000+0  14428-2 0  9999", "line2": "2 38054  73.9527 251.0890 0357485 227.3962 160.8212 13.62379948673023"}}, "geometry": {"type": "Point", "coordinates": [66.46906010907477, 11.947337089690782]}}, {"type": "Feature", "properties": {"norad_id": 38055, "name": "COSMOS 2251 DEB", "group": "cosmos-2251-debris", "lat": 45.638938957379516, "lon": -9.290000988409531, "alt_km": 680.6520289214932, "timestamp": "2025-12-22T09:53:37.798027+00:00", "meta": {"OBJECT_NAME": "COSMOS 2251 DEB", "OBJECT_ID": "1993-036BRM", "EPOCH": "2025-12-20T07:43:08.868288", "MEAN_MOTION": 14.77047435, "ECCENTRICITY": 0.00660367, "INCLINATION": 74.0077, "RA_OF_ASC_NODE": 191.8677, "ARG_OF_PERICENTER": 317.7505, "MEAN_ANOMALY": 222.1264, "EPHEMERIS_TYPE": 0, "CLASSIFICATION_TYPE": "U", "NORAD_CAT_ID": 38055, "ELEMENT_SET_NO": 999, "REV_AT_EPOCH": 60794, "BSTAR": 0.00044182386, "MEAN_MOTION_DOT": 3.197e-05, "MEAN_MOTION_DDOT": 0}, "tle": {"line1": "1 38055U 93036BRM 25354.32163042  .00003197  00000+0  44182-3 0  9993", "line2": "2 38055  74.0077 191.8677 0066036 317.7505 222.1264 14.77047435607943"}}, "geometry": {"type": "Point", "coordinates": [-9.290000988409531, 45.638938957379516]}}, {"type": "Feature", "properties": {"norad_id": 38060, "name": "COSMOS 2251 DEB", "group": "cosmos-2251-debris", "lat": -70.69815447846057, "lon": 151.51936474793413, "alt_km": 708.7617610606721, "timestamp": "2025-12-22T09:53:37.798037+00:00", "meta": {"OBJECT_NAME": "COSMOS 2251 DEB", "OBJECT_ID": "1993-036BRS", "EPOCH": "2025-12-21T01:33:01.988640", "MEAN_MOTION": 14.63900324, "ECCENTRICITY": 0.00584879, "INCLINATION": 74.0436, "RA_OF_ASC_NODE": 279.3269, "ARG_OF_PERICENTER": 23.1556, "MEAN_ANOMALY": 337.2227, "EPHEMERIS_TYPE": 0, "CLASSIFICATION_TYPE": "U", "NORAD_CAT_ID": 38060, "ELEMENT_SET_NO": 999, "REV_AT_EPOCH": 72086, "BSTAR": 0.00036511571, "MEAN_MOTION_DOT": 1.926e-05, "MEAN_MOTION_DDOT": 0}, "tle": {"line1": "1 38060U 93036BRS 25355.06460635  .00001926  00000+0  36512-3 0  9995", "line2": "2 38060  74.0436 279.3269 0058487  23.1556 337.2227 14.63900324720866"}}, "geometry": {"type": "Point", "coordinates": [151.51936474793413, -70.69815447846057]}}, {"type": "Feature", "properties": {"norad_id": 38062, "name": "COSMOS 2251 DEB", "group": "cosmos-2251-debris", "lat": -50.54570219874994, "lon": 111.32134864994326, "alt_km": 596.8231555980674, "timestamp": "2025-12-22T09:53:37.798046+00:00", "meta": {"OBJECT_NAME": "COSMOS 2251 DEB", "OBJECT_ID": "1993-036BRU", "EPOCH": "2025-12-20T12:40:12.328608", "MEAN_MOTION": 14.95206267, "ECCENTRICITY": 0.00129431, "INCLINATION": 74.0088, "RA_OF_ASC_NODE": 274.7346, "ARG_OF_PERICENTER": 42.7602, "MEAN_ANOMALY": 131.9089, "EPHEMERIS_TYPE": 0, "CLASSIFICATION_TYPE": "U", "NORAD_CAT_ID": 38062, "ELEMENT_SET_NO": 999, "REV_AT_EPOCH": 63146, "BSTAR": 0.0014745207, "MEAN_MOTION_DOT": 0.00016237, "MEAN_MOTION_DDOT": 0}, "tle": {"line1": "1 38062U 93036BRU 25354.52792047  .00016237  00000+0  14745-2 0  9996", "line2": "2 38062  74.0088 274.7346 0012943  42.7602 131.9089 14.95206267631464"}}, "geometry": {"type": "Point", "coordinates": [111.32134864994326, -50.54570219874994]}}, {"type": "Feature", "properties": {"norad_id": 38064, "name": "COSMOS 2251 DEB", "group": "cosmos-2251-debris", "lat": -59.91427927005756, "lon": -44.58888816365521, "alt_km": 680.3975309554498, "timestamp": "2025-12-22T09:53:37.798056+00:00", "meta": {"OBJECT_NAME": "COSMOS 2251 DEB", "OBJECT_ID": "1993-036BRW", "EPOCH": "2025-12-21T14:38:27.144960", "MEAN_MOTION": 14.56367522, "ECCENTRICITY": 0.0047142, "INCLINATION": 74.0231, "RA_OF_ASC_NODE": 107.2956, "ARG_OF_PERICENTER": 225.3304, "MEAN_ANOMALY": 134.4015, "EPHEMERIS_TYPE": 0, "CLASSIFICATION_TYPE": "U", "NORAD_CAT_ID": 38064, "ELEMENT_SET_NO": 999, "REV_AT_EPOCH": 71994, "BSTAR": 0.00076532, "MEAN_MOTION_DOT": 3.417e-05, "MEAN_MOTION_DDOT": 0}, "tle": {"line1": "1 38064U 93036BRW 25355.61003640  .00003417  00000+0  76532-3 0  9992", "line2": "2 38064  74.0231 107.2956 0047142 225.3304 134.4015 14.56367522719946"}}, "geometry": {"type": "Point", "coordinates": [-44.58888816365521, -59.91427927005756]}}, {"type": "Feature", "properties": {"norad_id": 38067, "name": "COSMOS 2251 DEB", "group": "cosmos-2251-debris", "lat": 29.755554477954924, "lon": -94.57839054430951, "alt_km": 639.0591446411981, "timestamp": "2025-12-22T09:53:37.798066+00:00", "meta": {"OBJECT_NAME": "COSMOS 2251 DEB", "OBJECT_ID": "1993-036BRZ", "EPOCH": "2025-12-20T00:18:38.290752", "MEAN_MOTION": 14.61151533, "ECCENTRICITY": 0.00696951, "INCLINATION": 74.0171, "RA_OF_ASC_NODE": 260.5817, "ARG_OF_PERICENTER": 46.2502, "MEAN_ANOMALY": 329.5601, "EPHEMERIS_TYPE": 0, "CLASSIFICATION_TYPE": "U", "NORAD_CAT_ID": 38067, "ELEMENT_SET_NO": 999, "REV_AT_EPOCH": 62662, "BSTAR": 0.00024256948, "MEAN_MOTION_DOT": 1.204e-05, "MEAN_MOTION_DDOT": 0}, "tle": {"line1": "1 38067U 93036BRZ 25354.01294318  .00001204  00000+0  24257-3 0  9991", "line2": "2 38067  74.0171 260.5817 0069695  46.2502 329.5601 14.61151533626627"}}, "geometry": {"type": "Point", "coordinates": [-94.57839054430951, 29.755554477954924]}}, {"type": "Feature", "properties": {"norad_id": 38068, "name": "COSMOS 2251 DEB", "group": "cosmos-2251-debris", "lat": -0.02861943815469942, "lon": -69.52202899941183, "alt_km": 757.8903126403693, "timestamp": "2025-12-22T09:53:37.798076+00:00", "meta": {"OBJECT_NAME": "COSMOS 2251 DEB", "OBJECT_ID": "1993-036BSA", "EPOCH": "2025-11-26T00:12:22.263264", "MEAN_MOTION": 14.35960004, "ECCENTRICITY": 0.00240903, "INCLINATION": 74.0219, "RA_OF_ASC_NODE": 338.9788, "ARG_OF_PERICENTER": 72.1007, "MEAN_ANOMALY": 288.2769, "EPHEMERIS_TYPE": 0, "CLASSIFICATION_TYPE": "U", "NORAD_CAT_ID": 38068, "ELEMENT_SET_NO": 999, "REV_AT_EPOCH": 66406, "BSTAR": 0.00028750999, "MEAN_MOTION_DOT": 8.11e-06, "MEAN_MOTION_DDOT": 0}, "tle": {"line1": "1 38068U 93036BSA 25330.00859101  .00000811  00000+0  28751-3 0  9998", "line2": "2 38068  74.0219 338.9788 0024090  72.1007 288.2769 14.35960004664064"}}, "geometry": {"type": "Point", "coordinates": [-69.52202899941183, -0.02861943815469942]}}, {"type": "Feature", "properties": {"norad_id": 38197, "name": "COSMOS 2251 DEB", "group": "cosmos-2251-debris", "lat": -57.419818895443555, "lon": -175.1552854881346, "alt_km": 576.0231229116662, "timestamp": "2025-12-22T09:53:37.798086+00:00", "meta": {"OBJECT_NAME": "COSMOS 2251 DEB", "OBJECT_ID": "1993-036BSM", "EPOCH": "2025-12-21T16:31:05.951712", "MEAN_MOTION": 14.74412737, "ECCENTRICITY": 0.012488, "INCLINATION": 73.938, "RA_OF_ASC_NODE": 339.4684, "ARG_OF_PERICENTER": 214.7346, "MEAN_ANOMALY": 144.563, "EPHEMERIS_TYPE": 0, "CLASSIFICATION_TYPE": "U", "NORAD_CAT_ID": 38197, "ELEMENT_SET_NO": 999, "REV_AT_EPOCH": 85887, "BSTAR": 0.0023695, "MEAN_MOTION_DOT": 0.00017843, "MEAN_MOTION_DDOT": 0}, "tle": {"line1": "1 38197U 93036BSM 25355.68826333  .00017843  00000+0  23695-2 0  9997", "line2": "2 38197  73.9380 339.4684 0124880 214.7346 144.5630 14.74412737858876"}}, "geometry": {"type": "Point", "coordinates": [-175.1552854881346, -57.419818895443555]}}, {"type": "Feature", "properties": {"norad_id": 38199, "name": "COSMOS 2251 DEB", "group": "cosmos-2251-debris", "lat": -0.12157048164598673, "lon": -133.66788580357658, "alt_km": 1257.3859802538927, "timestamp": "2025-12-22T09:53:37.798095+00:00", "meta": {"OBJECT_NAME": "COSMOS 2251 DEB", "OBJECT_ID": "1993-036BSP", "EPOCH": "2025-12-21T11:53:06.796320", "MEAN_MOTION": 13.64805558, "ECCENTRICITY": 0.03700621, "INCLINATION": 73.9558, "RA_OF_ASC_NODE": 47.8032, "ARG_OF_PERICENTER": 332.5446, "MEAN_ANOMALY": 25.6532, "EPHEMERIS_TYPE": 0, "CLASSIFICATION_TYPE": "U", "NORAD_CAT_ID": 38199, "ELEMENT_SET_NO": 999, "REV_AT_EPOCH": 61141, "BSTAR": 0.00052194647, "MEAN_MOTION_DOT": 6.47e-06, "MEAN_MOTION_DDOT": 0}, "tle": {"line1": "1 38199U 93036BSP 25355.49521755  .00000647  00000+0  52195-3 0  9990", "line2": "2 38199  73.9558  47.8032 0370062 332.5446  25.6532 13.64805558611419"}}, "geometry": {"type": "Point", "coordinates": [-133.66788580357658, -0.12157048164598673]}}, {"type": "Feature", "properties": {"norad_id": 38208, "name": "COSMOS 2251 DEB", "group": "cosmos-2251-debris", "lat": 8.63527385953569, "lon": -122.7963466432094, "alt_km": 617.0729247387126, "timestamp": "2025-12-22T09:53:37.798105+00:00", "meta": {"OBJECT_NAME": "COSMOS 2251 DEB", "OBJECT_ID": "1993-036BSY", "EPOCH": "2025-12-22T04:24:53.388864", "MEAN_MOTION": 14.84207001, "ECCENTRICITY": 8.56e-05, "INCLINATION": 74.0048, "RA_OF_ASC_NODE": 60.1537, "ARG_OF_PERICENTER": 130.0058, "MEAN_ANOMALY": 261.5985, "EPHEMERIS_TYPE": 0, "CLASSIFICATION_TYPE": "U", "NORAD_CAT_ID": 38208, "ELEMENT_SET_NO": 999, "REV_AT_EPOCH": 71299, "BSTAR": 0.002371, "MEAN_MOTION_DOT": 0.00019866, "MEAN_MOTION_DDOT": 0}, "tle": {"line1": "1 38208U 93036BSY 25356.18395126  .00019866  00000+0  23710-2 0  9992", "line2": "2 38208  74.0048  60.1537 0000856 130.0058 261.5985 14.84207001712995"}}, "geometry": {"type": "Point", "coordinates": [-122.7963466432094, 8.63527385953569]}}]}